{
    "links": {
        "self": "http://www.neowsapp.com/rest/v1/neo/3361623?api_key=iIulBulltgU6a56xZRHN4H3l9WmuAYTsLGpBGhQ2"
    },
    "id": "3361623",
    "neo_reference_id": "3361623",
    "name": "(2006 WD129)",
    "designation": "2006 WD129",
    "nasa_jpl_url": "http://ssd.jpl.nasa.gov/sbdb.cgi?sstr=3361623",
    "absolute_magnitude_h": 26.3,
    "estimated_diameter": {
        "kilometers": {
            "estimated_diameter_min": 0.0146067964,
            "estimated_diameter_max": 0.0326617897
        },
        "meters": {
            "estimated_diameter_min": 14.6067964271,
            "estimated_diameter_max": 32.6617897446
        },
        "miles": {
            "estimated_diameter_min": 0.0090762397,
            "estimated_diameter_max": 0.020295089
        },
        "feet": {
            "estimated_diameter_min": 47.92256199,
            "estimated_diameter_max": 107.1581062656
        }
    },
    "is_potentially_hazardous_asteroid": false,
    "close_approach_data": [
        {
            "close_approach_date": "2006-11-17",
            "close_approach_date_full": "2006-Nov-17 23:06",
            "epoch_date_close_approach": 1163804760000,
            "relative_velocity": {
                "kilometers_per_second": "10.8171479009",
                "kilometers_per_hour": "38941.7324433808",
                "miles_per_hour": "24196.8781396107"
            },
            "miss_distance": {
                "astronomical": "0.0383503288",
                "lunar": "14.9182779032",
                "kilometers": "5737127.502279656",
                "miles": "3564885.7239690128"
            },
            "orbiting_body": "Earth"
        }
    ],
    "orbital_data": {
        "orbit_id": "6",
        "orbit_determination_date": "2017-04-06 09:07:29",
        "first_observation_date": "2006-11-25",
        "last_observation_date": "2006-11-27",
        "data_arc_in_days": 2,
        "observations_used": 17,
        "orbit_uncertainty": "9",
        "minimum_orbit_intersection": ".0134915",
        "jupiter_tisserand_invariant": "3.796",
        "epoch_osculation": "2454065.5",
        "eccentricity": ".5018180496338565",
        "semi_major_axis": "1.885253615805203",
        "inclination": "6.035493834191003",
        "ascending_node_longitude": "56.81160482879768",
        "orbital_period": "945.4816414116376",
        "perihelion_distance": ".9391993232566601",
        "perihelion_argument": "319.4320365384805",
        "aphelion_distance": "2.831307908353745",
        "perihelion_time": "2454028.027614065786",
        "mean_anomaly": "14.26792266021782",
        "mean_motion": ".3807583185459923",
        "equinox": "J2000",
        "orbit_class": {
            "orbit_class_type": "APO",
            "orbit_class_description": "Near-Earth asteroid orbits which cross the Earth’s orbit similar to that of 1862 Apollo",
            "orbit_class_range": "a (semi-major axis) > 1.0 AU; q (perihelion) < 1.017 AU"
        }
    },
    "is_sentry_object": false
}